[{"OBJECT_NAME":"STARLINK-37075","OBJECT_ID":"2026-054Z","EPOCH":"2026-03-28T20:00:01.999008","MEAN_MOTION":15.80841483,"ECCENTRICITY":9.59e-5,"INCLINATION":53.1592,"RA_OF_ASC_NODE":216.5417,"ARG_OF_PERICENTER":82.5408,"MEAN_ANOMALY":290.2108,"EPHEMERIS_TYPE":0,"CLASSIFICATION_TYPE":"U","NORAD_CAT_ID":68255,"ELEMENT_SET_NO":999,"REV_AT_EPOCH":299,"BSTAR":0.0002536,"MEAN_MOTION_DOT":0.00049569,"MEAN_MOTION_DDOT":0},{"OBJECT_NAME":"STARLINK-36333","OBJECT_ID":"2026-054AA","EPOCH":"2026-03-28T20:00:01.999008","MEAN_MOTION":15.80829417,"ECCENTRICITY":0.0001045,"INCLINATION":53.1591,"RA_OF_ASC_NODE":216.5241,"ARG_OF_PERICENTER":63.7223,"MEAN_ANOMALY":317.5737,"EPHEMERIS_TYPE":0,"CLASSIFICATION_TYPE":"U","NORAD_CAT_ID":68256,"ELEMENT_SET_NO":999,"REV_AT_EPOCH":303,"BSTAR":0.00045951,"MEAN_MOTION_DOT":0.00090767,"MEAN_MOTION_DDOT":0},{"OBJECT_NAME":"STARLINK-36745","OBJECT_ID":"2026-054AB","EPOCH":"2026-03-28T20:00:01.999008","MEAN_MOTION":15.80860719,"ECCENTRICITY":0.0001458,"INCLINATION":53.1592,"RA_OF_ASC_NODE":216.5059,"ARG_OF_PERICENTER":64.0507,"MEAN_ANOMALY":325.7577,"EPHEMERIS_TYPE":0,"CLASSIFICATION_TYPE":"U","NORAD_CAT_ID":68257,"ELEMENT_SET_NO":999,"REV_AT_EPOCH":299,"BSTAR":0.00013692,"MEAN_MOTION_DOT":0.00026391,"MEAN_MOTION_DDOT":0},{"OBJECT_NAME":"STARLINK-36890","OBJECT_ID":"2026-054AC","EPOCH":"2026-03-28T20:00:01.999008","MEAN_MOTION":15.8084309,"ECCENTRICITY":0.0001296,"INCLINATION":53.159,"RA_OF_ASC_NODE":216.4976,"ARG_OF_PERICENTER":63.7484,"MEAN_ANOMALY":330.3569,"EPHEMERIS_TYPE":0,"CLASSIFICATION_TYPE":"U","NORAD_CAT_ID":68258,"ELEMENT_SET_NO":999,"REV_AT_EPOCH":299,"BSTAR":0.00034628,"MEAN_MOTION_DOT":0.00068091,"MEAN_MOTION_DDOT":0},{"OBJECT_NAME":"STARLINK-36323","OBJECT_ID":"2026-054AD","EPOCH":"2026-03-28T20:00:01.999008","MEAN_MOTION":15.80847321,"ECCENTRICITY":0.0001208,"INCLINATION":53.159,"RA_OF_ASC_NODE":216.5153,"ARG_OF_PERICENTER":78.4932,"MEAN_ANOMALY":307.0851,"EPHEMERIS_TYPE":0,"CLASSIFICATION_TYPE":"U","NORAD_CAT_ID":68259,"ELEMENT_SET_NO":999,"REV_AT_EPOCH":303,"BSTAR":0.0001099,"MEAN_MOTION_DOT":0.00021019,"MEAN_MOTION_DDOT":0},{"OBJECT_NAME":"STARLINK-37056","OBJECT_ID":"2026-054AE","EPOCH":"2026-03-28T20:00:01.999008","MEAN_MOTION":15.80796928,"ECCENTRICITY":0.0001425,"INCLINATION":53.159,"RA_OF_ASC_NODE":216.4885,"ARG_OF_PERICENTER":77.6967,"MEAN_ANOMALY":320.6922,"EPHEMERIS_TYPE":0,"CLASSIFICATION_TYPE":"U","NORAD_CAT_ID":68260,"ELEMENT_SET_NO":999,"REV_AT_EPOCH":299,"BSTAR":0.00097927,"MEAN_MOTION_DOT":0.00196343,"MEAN_MOTION_DDOT":0},{"OBJECT_NAME":"TEN-KOH 2","OBJECT_ID":"2025-241B","EPOCH":"2026-03-28T17:15:27.940896","MEAN_MOTION":15.22741984,"ECCENTRICITY":0.0004458,"INCLINATION":51.6385,"RA_OF_ASC_NODE":342.3896,"ARG_OF_PERICENTER":225.1685,"MEAN_ANOMALY":134.8931,"EPHEMERIS_TYPE":0,"CLASSIFICATION_TYPE":"U","NORAD_CAT_ID":68261,"ELEMENT_SET_NO":999,"REV_AT_EPOCH":264,"BSTAR":0.00043516,"MEAN_MOTION_DOT":9.978e-5,"MEAN_MOTION_DDOT":0},{"OBJECT_NAME":"STARLINK-37162","OBJECT_ID":"2026-055A","EPOCH":"2026-03-28T20:00:01.999008","MEAN_MOTION":15.95233118,"ECCENTRICITY":7.09e-5,"INCLINATION":53.1581,"RA_OF_ASC_NODE":241.6872,"ARG_OF_PERICENTER":55.3988,"MEAN_ANOMALY":346.5823,"EPHEMERIS_TYPE":0,"CLASSIFICATION_TYPE":"U","NORAD_CAT_ID":68262,"ELEMENT_SET_NO":999,"REV_AT_EPOCH":271,"BSTAR":-0.0026974,"MEAN_MOTION_DOT":-0.01087597,"MEAN_MOTION_DDOT":0.00036793},{"OBJECT_NAME":"STARLINK-37156","OBJECT_ID":"2026-055B","EPOCH":"2026-03-28T20:00:01.999008","MEAN_MOTION":15.95324745,"ECCENTRICITY":8.5e-5,"INCLINATION":53.158,"RA_OF_ASC_NODE":241.6824,"ARG_OF_PERICENTER":54.2191,"MEAN_ANOMALY":350.2511,"EPHEMERIS_TYPE":0,"CLASSIFICATION_TYPE":"U","NORAD_CAT_ID":68263,"ELEMENT_SET_NO":999,"REV_AT_EPOCH":271,"BSTAR":-0.0027,"MEAN_MOTION_DOT":-0.01093995,"MEAN_MOTION_DDOT":0.00037221},{"OBJECT_NAME":"STARLINK-37163","OBJECT_ID":"2026-055C","EPOCH":"2026-03-28T20:00:01.999008","MEAN_MOTION":15.95522876,"ECCENTRICITY":8.11e-5,"INCLINATION":53.1578,"RA_OF_ASC_NODE":241.6686,"ARG_OF_PERICENTER":56.9293,"MEAN_ANOMALY":353.8389,"EPHEMERIS_TYPE":0,"CLASSIFICATION_TYPE":"U","NORAD_CAT_ID":68264,"ELEMENT_SET_NO":999,"REV_AT_EPOCH":271,"BSTAR":-0.0026956,"MEAN_MOTION_DOT":-0.01103836,"MEAN_MOTION_DDOT":0.00037907},{"OBJECT_NAME":"STARLINK-37133","OBJECT_ID":"2026-055D","EPOCH":"2026-03-28T20:00:01.999008","MEAN_MOTION":15.95423692,"ECCENTRICITY":7.14e-5,"INCLINATION":53.1579,"RA_OF_ASC_NODE":241.6755,"ARG_OF_PERICENTER":55.3722,"MEAN_ANOMALY":352.3218,"EPHEMERIS_TYPE":0,"CLASSIFICATION_TYPE":"U","NORAD_CAT_ID":68265,"ELEMENT_SET_NO":999,"REV_AT_EPOCH":271,"BSTAR":-0.0026914,"MEAN_MOTION_DOT":-0.01096303,"MEAN_MOTION_DDOT":0.00037401},{"OBJECT_NAME":"STARLINK-37042","OBJECT_ID":"2026-055E","EPOCH":"2026-03-28T20:00:01.999008","MEAN_MOTION":15.95623727,"ECCENTRICITY":8.76e-5,"INCLINATION":53.1577,"RA_OF_ASC_NODE":241.6608,"ARG_OF_PERICENTER":55.1281,"MEAN_ANOMALY":359.6225,"EPHEMERIS_TYPE":0,"CLASSIFICATION_TYPE":"U","NORAD_CAT_ID":68266,"ELEMENT_SET_NO":999,"REV_AT_EPOCH":271,"BSTAR":-0.0026811,"MEAN_MOTION_DOT":-0.01103918,"MEAN_MOTION_DDOT":0.00037951},{"OBJECT_NAME":"STARLINK-37103","OBJECT_ID":"2026-055F","EPOCH":"2026-03-28T20:00:01.999008","MEAN_MOTION":15.95728034,"ECCENTRICITY":8.26e-5,"INCLINATION":53.158,"RA_OF_ASC_NODE":241.6534,"ARG_OF_PERICENTER":56.057,"MEAN_ANOMALY":2.1231,"EPHEMERIS_TYPE":0,"CLASSIFICATION_TYPE":"U","NORAD_CAT_ID":68267,"ELEMENT_SET_NO":999,"REV_AT_EPOCH":271,"BSTAR":-0.0026884,"MEAN_MOTION_DOT":-0.01113091,"MEAN_MOTION_DDOT":0.00038566},{"OBJECT_NAME":"STARLINK-36999","OBJECT_ID":"2026-055G","EPOCH":"2026-03-28T20:00:01.999008","MEAN_MOTION":15.95830044,"ECCENTRICITY":7.95e-5,"INCLINATION":53.1579,"RA_OF_ASC_NODE":241.6472,"ARG_OF_PERICENTER":56.844,"MEAN_ANOMALY":4.4344,"EPHEMERIS_TYPE":0,"CLASSIFICATION_TYPE":"U","NORAD_CAT_ID":68268,"ELEMENT_SET_NO":999,"REV_AT_EPOCH":271,"BSTAR":-0.0026835,"MEAN_MOTION_DOT":-0.0111719,"MEAN_MOTION_DDOT":0.00038864},{"OBJECT_NAME":"STARLINK-36962","OBJECT_ID":"2026-055H","EPOCH":"2026-03-28T20:00:01.999008","MEAN_MOTION":15.9593209,"ECCENTRICITY":8.52e-5,"INCLINATION":53.1579,"RA_OF_ASC_NODE":241.6403,"ARG_OF_PERICENTER":57.0441,"MEAN_ANOMALY":7.5157,"EPHEMERIS_TYPE":0,"CLASSIFICATION_TYPE":"U","NORAD_CAT_ID":68269,"ELEMENT_SET_NO":999,"REV_AT_EPOCH":271,"BSTAR":-0.0026721,"MEAN_MOTION_DOT":-0.01118634,"MEAN_MOTION_DDOT":0.00038996},{"OBJECT_NAME":"STARLINK-37028","OBJECT_ID":"2026-055J","EPOCH":"2026-03-28T20:00:01.999008","MEAN_MOTION":15.96128299,"ECCENTRICITY":8.96e-5,"INCLINATION":53.1578,"RA_OF_ASC_NODE":241.6191,"ARG_OF_PERICENTER":54.537,"MEAN_ANOMALY":20.0146,"EPHEMERIS_TYPE":0,"CLASSIFICATION_TYPE":"U","NORAD_CAT_ID":68270,"ELEMENT_SET_NO":999,"REV_AT_EPOCH":271,"BSTAR":-0.0026739,"MEAN_MOTION_DOT":-0.0113126,"MEAN_MOTION_DDOT":0.00039878}]
